NORAD_CAT_ID,OBJECT_NAME,OBJECT_TYPE,EPOCH,MEAN_MOTION,ECCENTRICITY,INCLINATION,RA_OF_ASC_NODE,ARG_OF_PERICENTER,MEAN_ANOMALY,BSTAR,MEAN_MOTION_DOT,MEAN_MOTION_DDOT,TLE_LINE0,TLE_LINE1,TLE_LINE2,SEMIMAJOR_AXIS,PERIOD,APOGEE,PERIGEE,DECAYED
54801.0,STARLINK-5429,PAYLOAD,2023-12-15 12:41:36,15.08837324,0.0001148,53.2174,103.0796,99.2501,260.8621,-5.8302e-05,-1.215e-05,0.0,0 STARLINK-5429,1 54801U 22175AV  23349.52889138 -.00001215  00000-0 -58302-4 0  9993,2 54801  53.2174 103.0796 0001148  99.2501 260.8621 15.08837324 56869,6917.889,95.438,540.548,538.959,0.0
54801.0,STARLINK-5429,PAYLOAD,2023-12-16 10:56:58,15.08857524,0.000152,53.2181,98.9123,106.3826,253.7334,-3.588e-05,-8.59e-06,0.0,0 STARLINK-5429,1 54801U 22175AV  23350.45623444 -.00000859  00000-0 -35880-4 0  9992,2 54801  53.2181  98.9123 0001520 106.3826 253.7334 15.08857524 54849,6917.827,95.436,540.743,538.64,0.0
54801.0,STARLINK-5429,PAYLOAD,2023-12-16 14:07:46,15.08838217,0.0001419,53.2176,98.3199,67.8706,292.2437,-0.00018055,-3.16e-05,0.0,0 STARLINK-5429,1 54801U 22175AV  23350.58873049 -.00003160  00000-0 -18055-3 0  9996,2 54801  53.2176  98.3199 0001419  67.8706 292.2437 15.08838217 57028,6917.886,95.438,540.732,538.769,0.0
54801.0,STARLINK-5429,PAYLOAD,2023-12-17 13:58:32,15.08847691,0.00017,53.2173,93.859,128.2027,231.9119,0.00013947,1.933e-05,0.0,0 STARLINK-5429,1 54801U 22175AV  23351.58232273  .00001933  00000-0  13947-3 0  9994,2 54801  53.2173  93.8590 0001700 128.2027 231.9119 15.08847691 57170,6917.857,95.437,540.898,538.546,0.0
54801.0,STARLINK-5429,PAYLOAD,2023-12-18 12:13:56,15.08840977,0.0001456,53.2173,89.6987,70.8147,289.3003,0.00023222,3.41e-05,0.0,0 STARLINK-5429,1 54801U 22175AV  23352.50968593  .00003410  00000-0  23222-3 0  9997,2 54801  53.2173  89.6987 0001456  70.8147 289.3003 15.08840977 55151,6917.877,95.437,540.75,538.735,0.0
54801.0,STARLINK-5429,PAYLOAD,2023-12-19 12:04:44,15.08840185,0.0001553,53.2164,85.2363,74.4439,285.6725,-6.5644e-05,-1.333e-05,0.0,0 STARLINK-5429,1 54801U 22175AV  23353.50329058 -.00001333  00000-0 -65644-4 0  9994,2 54801  53.2164  85.2363 0001553  74.4439 285.6725 15.08840185 55301,6917.88,95.438,540.819,538.67,0.0
54801.0,STARLINK-5429,PAYLOAD,2023-12-19 13:40:07,15.08841019,0.0001635,53.2165,84.9395,68.027,292.0896,-4.2372e-05,-9.62e-06,0.0,0 STARLINK-5429,1 54801U 22175AV  23353.56952979 -.00000962  00000-0 -42372-4 0  9994,2 54801  53.2165  84.9395 0001635  68.0270 292.0896 15.08841019 57474,6917.877,95.437,540.873,538.611,0.0
54801.0,STARLINK-5429,PAYLOAD,2023-12-20 11:55:32,15.0883112,0.000197,53.2187,80.7808,50.0448,310.0717,-1.1939e-06,-3.07e-06,0.0,0 STARLINK-5429,1 54801U 22175AV  23354.49690639 -.00000307  00000-0 -11939-5 0  9998,2 54801  53.2187  80.7808 0001970  50.0448 310.0717 15.08831120 55452,6917.908,95.438,541.135,538.41,0.0
54801.0,STARLINK-5429,PAYLOAD,2023-12-20 13:30:55,15.08820377,0.0001789,53.2192,80.4828,55.6457,304.4704,0.00018042,2.583e-05,0.0,0 STARLINK-5429,1 54801U 22175AV  23354.56314790  .00002583  00000-0  18042-3 0  9993,2 54801  53.2192  80.4828 0001789  55.6457 304.4704 15.08820377 57622,6917.94,95.439,541.043,538.568,0.0
54801.0,STARLINK-5429,PAYLOAD,2023-12-21 11:46:22,15.08791017,0.0001907,53.2189,76.3202,69.4352,290.6845,-0.00031598,-5.307e-05,0.0,0 STARLINK-5429,1 54801U 22175AV  23355.49053720 -.00005307  00000-0 -31598-3 0  9999,2 54801  53.2189  76.3202 0001907  69.4352 290.6845 15.08791017 55603,6918.03,95.441,541.214,538.576,0.0
54801.0,STARLINK-5429,PAYLOAD,2023-12-21 13:21:46,15.0878391,0.000218,53.2186,76.0253,59.2899,300.8307,-0.00037056,-6.172e-05,0.0,0 STARLINK-5429,1 54801U 22175AV  23355.55678585 -.00006172  00000-0 -37056-3 0  9994,2 54801  53.2186  76.0253 0002180  59.2899 300.8307 15.08783910 57770,6918.052,95.441,541.425,538.409,0.0
54801.0,STARLINK-5429,PAYLOAD,2023-12-22 11:37:05,15.088613,0.0001703,53.218,71.8645,67.8259,292.2914,0.00027491,4.092e-05,0.0,0 STARLINK-5429,1 54801U 22175AV  23356.48409264  .00004092  00000-0  27491-3 0  9992,2 54801  53.2180  71.8645 0001703  67.8259 292.2914 15.08861300 55751,6917.815,95.436,540.858,538.502,0.0
54801.0,STARLINK-5429,PAYLOAD,2023-12-23 11:27:54,15.0881206,0.0001976,53.2179,67.4005,84.0899,276.0318,0.00049522,7.596e-05,0.0,0 STARLINK-5429,1 54801U 22175AV  23357.47771817  .00007596  00000-0  49522-3 0  9999,2 54801  53.2179  67.4005 0001976  84.0899 276.0318 15.08812060 55907,6917.966,95.439,541.198,538.464,0.0
54801.0,STARLINK-5429,PAYLOAD,2023-12-24 00:10:59,15.08841203,0.000191,53.2186,65.019,81.7073,278.4135,0.00010509,1.385e-05,0.0,0 STARLINK-5429,1 54801U 22175AV  23358.00763051  .00001385  00000-0  10509-3 0  9993,2 54801  53.2186  65.0190 0001910  81.7073 278.4135 15.08841203 55982,6917.877,95.437,541.063,538.42,0.0
54801.0,STARLINK-5429,PAYLOAD,2023-12-24 11:18:39,15.08871463,0.0002412,53.2184,62.9331,61.8544,298.2691,3.5452e-05,2.76e-06,0.0,0 STARLINK-5429,1 54801U 22175AV  23358.47129231  .00000276  00000-0  35452-4 0  9993,2 54801  53.2184  62.9331 0002412  61.8544 298.2691 15.08871463 56050,6917.784,95.436,541.318,537.981,0.0
54801.0,STARLINK-5429,PAYLOAD,2023-12-24 14:29:25,15.08871744,0.0002881,53.2176,62.3372,49.9928,310.1317,6.1197e-05,6.86e-06,0.0,0 STARLINK-5429,1 54801U 22175AV  23358.60377183  .00000686  00000-0  61197-4 0  9999,2 54801  53.2176  62.3372 0002881  49.9928 310.1317 15.08871744 58236,6917.783,95.436,541.641,537.655,0.0
54801.0,STARLINK-5429,PAYLOAD,2023-12-25 11:09:27,15.08850558,0.0002189,53.2171,58.4737,92.2449,267.8794,0.0001522,2.136e-05,0.0,0 STARLINK-5429,1 54801U 22175AV  23359.46489985  .00002136  00000-0  15220-3 0  9995,2 54801  53.2171  58.4737 0002189  92.2449 267.8794 15.08850558 56204,6917.848,95.437,541.227,538.199,0.0
54801.0,STARLINK-5429,PAYLOAD,2023-12-26 09:24:51,15.08837417,0.000205,53.2179,54.3103,93.164,266.9587,-9.2132e-05,-1.754e-05,0.0,0 STARLINK-5429,1 54801U 22175AV  23360.39226538 -.00001754  00000-0 -92132-4 0  9997,2 54801  53.2179  54.3103 0002050  93.1640 266.9587 15.08837417 56348,6917.888,95.438,541.171,538.335,0.0
54801.0,STARLINK-5429,PAYLOAD,2023-12-27 10:51:02,15.08840757,0.0002062,53.2167,49.5553,81.3584,278.7642,7.7509e-05,9.46e-06,0.0,0 STARLINK-5429,1 54801U 22175AV  23361.45210858  .00000946  00000-0  77509-4 0  9994,2 54801  53.2167  49.5553 0002062  81.3584 278.7642 15.08840757 56501,6917.878,95.438,541.17,538.317,0.0
54801.0,STARLINK-5429,PAYLOAD,2023-12-27 14:01:48,15.08844308,0.0002036,53.2169,48.9582,95.4119,264.7105,0.00012918,1.769e-05,0.0,0 STARLINK-5429,1 54801U 22175AV  23361.58458557  .00001769  00000-0  12918-3 0  9994,2 54801  53.2169  48.9582 0002036  95.4119 264.7105 15.08844308 58685,6917.867,95.437,541.141,538.324,0.0
54801.0,STARLINK-5429,PAYLOAD,2023-12-28 10:41:49,15.08841673,0.0002088,53.2169,45.0935,87.125,272.9981,0.00014538,2.026e-05,0.0,0 STARLINK-5429,1 54801U 22175AV  23362.44570921  .00002026  00000-0  14538-3 0  9997,2 54801  53.2169  45.0935 0002088  87.1250 272.9981 15.08841673 58816,6917.875,95.437,541.185,538.296,0.0
54801.0,STARLINK-5429,PAYLOAD,2023-12-29 02:35:41,15.08837903,0.0002184,53.2171,42.1217,82.3548,277.7692,9.1809e-05,1.173e-05,0.0,0 STARLINK-5429,1 54801U 22175AV  23363.10811375  .00001173  00000-0  91809-4 0  9991,2 54801  53.2171  42.1217 0002184  82.3548 277.7692 15.08837903 56758,6917.887,95.438,541.263,538.241,0.0
54801.0,STARLINK-5429,PAYLOAD,2023-12-29 08:57:13,15.08839257,0.0002207,53.2174,40.9324,90.1241,270.0004,9.9128e-05,1.29e-05,0.0,0 STARLINK-5429,1 54801U 22175AV  23363.37307322  .00001290  00000-0  99128-4 0  9994,2 54801  53.2174  40.9324 0002207  90.1241 270.0004 15.08839257 58950,6917.883,95.438,541.274,538.221,0.0
54801.0,STARLINK-5429,PAYLOAD,2023-12-30 11:58:46,15.08850958,0.00022,53.2174,35.876,94.5518,265.5725,2.3513e-05,8.6e-07,0.0,0 STARLINK-5429,1 54801U 22175AV  23364.49914475  .00000086  00000-0  23513-4 0  9998,2 54801  53.2174  35.8760 0002200  94.5518 265.5725 15.08850958 56964,6917.847,95.437,541.234,538.19,0.0
54801.0,STARLINK-5429,PAYLOAD,2023-12-31 02:17:15,15.08837431,0.0002424,53.2195,33.1949,123.8277,236.2946,-4.8777e-05,-1.065e-05,0.0,0 STARLINK-5429,1 54801U 22175AV  23365.09531388 -.00001065  00000-0 -48777-4 0  9992,2 54801  53.2195  33.1949 0002424 123.8277 236.2946 15.08837431 57055,6917.888,95.438,541.43,538.076,0.0
54801.0,STARLINK-5429,PAYLOAD,2023-12-31 11:49:33,15.08837658,0.0002175,53.2183,31.4148,104.945,255.1783,2.9089e-05,1.75e-06,0.0,0 STARLINK-5429,1 54801U 22175AV  23365.49275445  .00000175  00000-0  29089-4 0  9999,2 54801  53.2183  31.4148 0002175 104.9450 255.1783 15.08837658 59276,6917.888,95.438,541.257,538.248,0.0
54801.0,STARLINK-5429,PAYLOAD,2024-01-01 08:29:34,15.08849419,0.000205,53.2181,27.5496,94.5698,265.5528,2.878e-05,1.7e-06,0.0,0 STARLINK-5429,1 54801U 22175AV  24001.35386852  .00000170  00000-0  28780-4 0  9999,2 54801  53.2181  27.5496 0002050  94.5698 265.5528 15.08849419 57241,6917.852,95.437,541.135,538.298,0.0
54801.0,STARLINK-5429,PAYLOAD,2024-01-02 01:58:49,15.08835998,0.0002079,53.2176,24.2784,95.4307,264.6923,7.9004e-05,9.69e-06,0.0,0 STARLINK-5429,1 54801U 22175AV  24002.08251620  .00000969  00000-0  79004-4 0  9995,2 54801  53.2176  24.2784 0002079  95.4307 264.6923 15.08835998 57355,6917.893,95.438,541.196,538.319,0.0
54801.0,STARLINK-5429,PAYLOAD,2024-01-02 08:20:21,15.08843652,0.0002088,53.2179,23.0894,95.1506,264.9725,0.0001333,1.834e-05,0.0,0 STARLINK-5429,1 54801U 22175AV  24002.34747050  .00001834  00000-0  13330-3 0  9992,2 54801  53.2179  23.0894 0002088  95.1506 264.9725 15.08843652 57398,6917.869,95.437,541.179,538.29,0.0
54801.0,STARLINK-5429,PAYLOAD,2024-01-02 22:38:50,15.08838721,0.0002145,53.2181,20.413,105.625,254.4979,5.2533e-05,5.48e-06,0.0,0 STARLINK-5429,1 54801U 22175AV  24002.94363484  .00000548  00000-0  52533-4 0  9993,2 54801  53.2181  20.4130 0002145 105.6250 254.4979 15.08838721 57488,6917.884,95.438,541.233,538.265,0.0
